[{"OBJECT_NAME":"STARLINK-30355","OBJECT_ID":"2023-134G","EPOCH":"2026-03-09T22:00:01.999584","MEAN_MOTION":15.15158343,"ECCENTRICITY":0.00012731,"INCLINATION":42.9989,"RA_OF_ASC_NODE":195.8207,"ARG_OF_PERICENTER":271.7822,"MEAN_ANOMALY":333.1192,"EPHEMERIS_TYPE":0,"CLASSIFICATION_TYPE":"U","NORAD_CAT_ID":57777,"ELEMENT_SET_NO":999,"REV_AT_EPOCH":578,"BSTAR":0.004135665,"MEAN_MOTION_DOT":0.00079625,"MEAN_MOTION_DDOT":0},{"OBJECT_NAME":"GB 2","OBJECT_ID":"1983-056D","EPOCH":"2026-03-09T14:43:25.991328","MEAN_MOTION":13.78053489,"ECCENTRICITY":0.0732375,"INCLINATION":63.3116,"RA_OF_ASC_NODE":172.1265,"ARG_OF_PERICENTER":130.2163,"MEAN_ANOMALY":236.5364,"EPHEMERIS_TYPE":0,"CLASSIFICATION_TYPE":"U","NORAD_CAT_ID":14144,"ELEMENT_SET_NO":999,"REV_AT_EPOCH":34222,"BSTAR":0.0006089,"MEAN_MOTION_DOT":4.982e-5,"MEAN_MOTION_DDOT":0}]
